STARLINK-4569           
1 53687U 22105AR  26068.63622850  .00002133  00000+0  15205-3 0  9997
2 53687  97.6053 311.1164 0002028  74.5680 285.5771 15.05631593193297
2024-205L               
1 61904U 24205L   26066.14074752  .00013606  00000+0  79283-3 0  9990
2 61904  97.4213 140.2188 0054772 346.2042  13.7688 15.10822925 72825
