[{"OBJECT_NAME":"STARLINK-4569","OBJECT_ID":"2022-105AR","EPOCH":"2026-03-09T15:16:10.142400","MEAN_MOTION":15.05631593,"ECCENTRICITY":0.0002028,"INCLINATION":97.6053,"RA_OF_ASC_NODE":311.1164,"ARG_OF_PERICENTER":74.568,"MEAN_ANOMALY":285.5771,"EPHEMERIS_TYPE":0,"CLASSIFICATION_TYPE":"U","NORAD_CAT_ID":53687,"ELEMENT_SET_NO":999,"REV_AT_EPOCH":19329,"BSTAR":0.00015205,"MEAN_MOTION_DOT":2.133e-5,"MEAN_MOTION_DDOT":0},{"OBJECT_NAME":"OBJECT L","OBJECT_ID":"2024-205L","EPOCH":"2026-03-07T03:22:40.585728","MEAN_MOTION":15.10822925,"ECCENTRICITY":0.00547724,"INCLINATION":97.4213,"RA_OF_ASC_NODE":140.2188,"ARG_OF_PERICENTER":346.2042,"MEAN_ANOMALY":13.7688,"EPHEMERIS_TYPE":0,"CLASSIFICATION_TYPE":"U","NORAD_CAT_ID":61904,"ELEMENT_SET_NO":999,"REV_AT_EPOCH":7282,"BSTAR":0.00079283043,"MEAN_MOTION_DOT":0.00013606,"MEAN_MOTION_DDOT":0}]
